start=new Date('2023-02-01T00:00:00.000Z').valueOf();
sats=[{"NORAD_CAT_ID":"47912","REF_FRAME":"TEME","SEMIMAJOR_AXIS":"6925.298","TIME_SYSTEM":"UTC","MEAN_ANOMALY":"269.7066","DECAY_DATE":null,"SITE":"AFETR","APOAPSIS":"548.186","ARG_OF_PERICENTER":"90.4092","COUNTRY_CODE":"US","RA_OF_ASC_NODE":"319.9901","INCLINATION":"53.0527","ECCENTRICITY":"0.00014770","OBJECT_TYPE":"PAYLOAD","CENTER_NAME":"EARTH","OBJECT_ID":"2021-021BE","LAUNCH_DATE":"2021-03-14","BSTAR":"0.00101720000000","OBJECT_NAME":"STARLINK-2372","MEAN_MOTION_DOT":"0.00014909","PERIOD":"95.591","EPHEMERIS_TYPE":"0","MEAN_MOTION":"15.06416463","MEAN_MOTION_DDOT":"0.0000000000000","MEAN_ELEMENT_THEORY":"SGP4","GP_ID":"224095265","FILE":"3766475","EPOCH":"2023-01-31T05:06:18.615744","CLASSIFICATION_TYPE":"U","ELEMENT_SET_NO":"999","RCS_SIZE":"LARGE","PERIAPSIS":"546.140","TLE_LINE1":"1 47912U 21021BE  23031.21271546  .00014909  00000-0  10172-2 0  9992","TLE_LINE2":"2 47912  53.0527 319.9901 0001477  90.4092 269.7066 15.06416463105190","REV_AT_EPOCH":"10519"},{"MEAN_MOTION_DDOT":"0.0000000000000","MEAN_MOTION":"15.06402214","EPHEMERIS_TYPE":"0","PERIOD":"95.592","MEAN_MOTION_DOT":"0.00003456","OBJECT_NAME":"STARLINK-2374","BSTAR":"0.00025081000000","REV_AT_EPOCH":"10519","TLE_LINE2":"2 47913  53.0537 331.0316 0001481 100.0802 260.0354 15.06402214105192","TLE_LINE1":"1 47913U 21021BF  23031.08747155  .00003456  00000-0  25081-3 0  9993","PERIAPSIS":"546.181","RCS_SIZE":"LARGE","ELEMENT_SET_NO":"999","CLASSIFICATION_TYPE":"U","EPOCH":"2023-01-31T02:05:57.541920","FILE":"3766475","GP_ID":"224093521","MEAN_ELEMENT_THEORY":"SGP4","APOAPSIS":"548.232","SITE":"AFETR","DECAY_DATE":null,"MEAN_ANOMALY":"260.0354","TIME_SYSTEM":"UTC","SEMIMAJOR_AXIS":"6925.342","REF_FRAME":"TEME","NORAD_CAT_ID":"47913","LAUNCH_DATE":"2021-03-14","OBJECT_ID":"2021-021BF","CENTER_NAME":"EARTH","OBJECT_TYPE":"PAYLOAD","ECCENTRICITY":"0.00014810","INCLINATION":"53.0537","RA_OF_ASC_NODE":"331.0316","COUNTRY_CODE":"US","ARG_OF_PERICENTER":"100.0802"},{"MEAN_MOTION":"15.06401502","MEAN_MOTION_DDOT":"0.0000000000000","BSTAR":"0.00011185000000","OBJECT_NAME":"STARLINK-2375","MEAN_MOTION_DOT":"0.00001385","PERIOD":"95.592","EPHEMERIS_TYPE":"0","CLASSIFICATION_TYPE":"U","ELEMENT_SET_NO":"999","RCS_SIZE":"LARGE","PERIAPSIS":"546.158","TLE_LINE1":"1 47914U 21021BG  23031.83566318  .00001385  00000-0  11185-3 0  9996","TLE_LINE2":"2 47914  53.0550 327.1979 0001517 101.9379 258.1780 15.06401502105301","REV_AT_EPOCH":"10530","MEAN_ELEMENT_THEORY":"SGP4","GP_ID":"224124627","FILE":"3766747","EPOCH":"2023-01-31T20:03:21.298752","DECAY_DATE":null,"SITE":"AFETR","APOAPSIS":"548.260","REF_FRAME":"TEME","NORAD_CAT_ID":"47914","SEMIMAJOR_AXIS":"6925.344","TIME_SYSTEM":"UTC","MEAN_ANOMALY":"258.1780","OBJECT_TYPE":"PAYLOAD","CENTER_NAME":"EARTH","OBJECT_ID":"2021-021BG","LAUNCH_DATE":"2021-03-14","ARG_OF_PERICENTER":"101.9379","COUNTRY_CODE":"US","RA_OF_ASC_NODE":"327.1979","INCLINATION":"53.0550","ECCENTRICITY":"0.00015170"},{"DECAY_DATE":null,"SITE":"AFETR","APOAPSIS":"548.276","NORAD_CAT_ID":"47915","REF_FRAME":"TEME","SEMIMAJOR_AXIS":"6925.360","TIME_SYSTEM":"UTC","MEAN_ANOMALY":"250.4270","OBJECT_TYPE":"PAYLOAD","CENTER_NAME":"EARTH","OBJECT_ID":"2021-021BH","LAUNCH_DATE":"2021-03-14","ARG_OF_PERICENTER":"109.6883","COUNTRY_CODE":"US","RA_OF_ASC_NODE":"322.2072","INCLINATION":"53.0568","ECCENTRICITY":"0.00015180","MEAN_MOTION":"15.06396407","MEAN_MOTION_DDOT":"0.0000000000000","BSTAR":"0.00003859400000","OBJECT_NAME":"STARLINK-2376","MEAN_MOTION_DOT":"0.00000293","PERIOD":"95.592","EPHEMERIS_TYPE":"0","CLASSIFICATION_TYPE":"U","ELEMENT_SET_NO":"999","RCS_SIZE":"LARGE","PERIAPSIS":"546.173","TLE_LINE1":"1 47915U 21021BH  23031.83428583  .00000293  00000-0  38594-4 0  9999","TLE_LINE2":"2 47915  53.0568 322.2072 0001518 109.6883 250.4270 15.06396407105381","REV_AT_EPOCH":"10538","MEAN_ELEMENT_THEORY":"SGP4","GP_ID":"224125878","FILE":"3766747","EPOCH":"2023-01-31T20:01:22.295712"},{"PERIAPSIS":"546.204","TLE_LINE1":"1 47916U 21021BJ  23031.80801945  .00003396  00000-0  24677-3 0  9997","TLE_LINE2":"2 47916  53.0531 307.3257 0001462  98.7498 261.3656 15.06399204105566","REV_AT_EPOCH":"10556","CLASSIFICATION_TYPE":"U","ELEMENT_SET_NO":"999","RCS_SIZE":"LARGE","FILE":"3766747","EPOCH":"2023-01-31T19:23:32.880480","MEAN_ELEMENT_THEORY":"SGP4","GP_ID":"224125629","MEAN_MOTION":"15.06399204","MEAN_MOTION_DDOT":"0.0000000000000","MEAN_MOTION_DOT":"0.00003396","PERIOD":"95.592","EPHEMERIS_TYPE":"0","BSTAR":"0.00024677000000","OBJECT_NAME":"STARLINK-2378","CENTER_NAME":"EARTH","OBJECT_ID":"2021-021BJ","LAUNCH_DATE":"2021-03-14","OBJECT_TYPE":"PAYLOAD","INCLINATION":"53.0531","ECCENTRICITY":"0.00014620","ARG_OF_PERICENTER":"98.7498","COUNTRY_CODE":"US","RA_OF_ASC_NODE":"307.3257","APOAPSIS":"548.228","DECAY_DATE":null,"SITE":"AFETR","TIME_SYSTEM":"UTC","MEAN_ANOMALY":"261.3656","NORAD_CAT_ID":"47916","REF_FRAME":"TEME","SEMIMAJOR_AXIS":"6925.351"},{"APOAPSIS":"548.155","DECAY_DATE":null,"SITE":"AFETR","TIME_SYSTEM":"UTC","MEAN_ANOMALY":"263.7993","REF_FRAME":"TEME","NORAD_CAT_ID":"47917","SEMIMAJOR_AXIS":"6925.319","CENTER_NAME":"EARTH","OBJECT_ID":"2021-021BK","LAUNCH_DATE":"2021-03-14","OBJECT_TYPE":"PAYLOAD","INCLINATION":"53.0568","ECCENTRICITY":"0.00014020","ARG_OF_PERICENTER":"96.3155","COUNTRY_CODE":"US","RA_OF_ASC_NODE":"320.2681","MEAN_MOTION":"15.06409507","MEAN_MOTION_DDOT":"0.0000000000000","MEAN_MOTION_DOT":"0.00014136","PERIOD":"95.592","EPHEMERIS_TYPE":"0","BSTAR":"0.00096576000000","OBJECT_NAME":"STARLINK-2397","PERIAPSIS":"546.213","TLE_LINE1":"1 47917U 21021BK  23031.15100280  .00014136  00000-0  96576-3 0  9991","TLE_LINE2":"2 47917  53.0568 320.2681 0001402  96.3155 263.7993 15.06409507105311","REV_AT_EPOCH":"10531","CLASSIFICATION_TYPE":"U","ELEMENT_SET_NO":"999","RCS_SIZE":"LARGE","FILE":"3766475","EPOCH":"2023-01-31T03:37:26.641920","MEAN_ELEMENT_THEORY":"SGP4","GP_ID":"224094022"},{"MEAN_MOTION_DOT":"0.00000443","PERIOD":"95.592","EPHEMERIS_TYPE":"0","BSTAR":"0.00004865700000","OBJECT_NAME":"STARLINK-2398","MEAN_MOTION":"15.06396323","MEAN_MOTION_DDOT":"0.0000000000000","FILE":"3766747","EPOCH":"2023-01-31T18:07:54.799968","MEAN_ELEMENT_THEORY":"SGP4","GP_ID":"224125127","PERIAPSIS":"545.563","TLE_LINE1":"1 47918U 21021BL  23031.75549537  .00000443  00000-0  48657-4 0  9994","TLE_LINE2":"2 47918  53.0549 317.5604 0002400 125.2653 234.8561 15.06396323105433","REV_AT_EPOCH":"10543","CLASSIFICATION_TYPE":"U","ELEMENT_SET_NO":"999","RCS_SIZE":"LARGE","TIME_SYSTEM":"UTC","MEAN_ANOMALY":"234.8561","NORAD_CAT_ID":"47918","REF_FRAME":"TEME","SEMIMAJOR_AXIS":"6925.360","APOAPSIS":"548.887","DECAY_DATE":null,"SITE":"AFETR","INCLINATION":"53.0549","ECCENTRICITY":"0.00024000","ARG_OF_PERICENTER":"125.2653","COUNTRY_CODE":"US","RA_OF_ASC_NODE":"317.5604","CENTER_NAME":"EARTH","OBJECT_ID":"2021-021BL","LAUNCH_DATE":"2021-03-14","OBJECT_TYPE":"PAYLOAD"},{"APOAPSIS":"548.339","SITE":"AFETR","DECAY_DATE":null,"MEAN_ANOMALY":"267.5292","TIME_SYSTEM":"UTC","SEMIMAJOR_AXIS":"6925.339","NORAD_CAT_ID":"47919","REF_FRAME":"TEME","OBJECT_ID":"2021-021BM","LAUNCH_DATE":"2021-03-14","CENTER_NAME":"EARTH","OBJECT_TYPE":"PAYLOAD","INCLINATION":"53.0548","ECCENTRICITY":"0.00016400","RA_OF_ASC_NODE":"327.3356","ARG_OF_PERICENTER":"92.5885","COUNTRY_CODE":"US","MEAN_MOTION":"15.06403260","MEAN_MOTION_DDOT":"0.0000000000000","PERIOD":"95.592","EPHEMERIS_TYPE":"0","MEAN_MOTION_DOT":"-0.00000782","BSTAR":"-0.00003359400000","OBJECT_NAME":"STARLINK-2405","TLE_LINE2":"2 47919  53.0548 327.3356 0001640  92.5885 267.5292 15.06403260105280","REV_AT_EPOCH":"10528","PERIAPSIS":"546.068","TLE_LINE1":"1 47919U 21021BM  23031.80617666 -.00000782  00000-0 -33594-4 0  9992","ELEMENT_SET_NO":"999","RCS_SIZE":"LARGE","CLASSIFICATION_TYPE":"U","EPOCH":"2023-01-31T19:20:53.663424","FILE":"3766747","GP_ID":"224125379","MEAN_ELEMENT_THEORY":"SGP4"},{"INCLINATION":"53.0536","ECCENTRICITY":"0.00012750","ARG_OF_PERICENTER":"89.7373","COUNTRY_CODE":"US","RA_OF_ASC_NODE":"14.3813","CENTER_NAME":"EARTH","OBJECT_ID":"2021-024A","LAUNCH_DATE":"2021-03-24","OBJECT_TYPE":"PAYLOAD","TIME_SYSTEM":"UTC","MEAN_ANOMALY":"270.3762","REF_FRAME":"TEME","NORAD_CAT_ID":"47977","SEMIMAJOR_AXIS":"6925.306","APOAPSIS":"548.054","DECAY_DATE":null,"SITE":"AFETR","FILE":"3766475","EPOCH":"2023-01-31T08:24:42.809472","MEAN_ELEMENT_THEORY":"SGP4","GP_ID":"224094771","PERIAPSIS":"546.288","TLE_LINE1":"1 47977U 21024A   23031.35049548  .00003677  00000-0  26553-3 0  9997","TLE_LINE2":"2 47977  53.0536  14.3813 0001275  89.7373 270.3762 15.06413826103883","REV_AT_EPOCH":"10388","CLASSIFICATION_TYPE":"U","ELEMENT_SET_NO":"999","RCS_SIZE":"LARGE","MEAN_MOTION_DOT":"0.00003677","PERIOD":"95.591","EPHEMERIS_TYPE":"0","BSTAR":"0.00026553000000","OBJECT_NAME":"STARLINK-2087","MEAN_MOTION":"15.06413826","MEAN_MOTION_DDOT":"0.0000000000000"},{"CENTER_NAME":"EARTH","OBJECT_ID":"2021-024B","LAUNCH_DATE":"2021-03-24","OBJECT_TYPE":"PAYLOAD","INCLINATION":"53.0545","ECCENTRICITY":"0.00014380","ARG_OF_PERICENTER":"91.0139","COUNTRY_CODE":"US","RA_OF_ASC_NODE":"24.2821","APOAPSIS":"548.235","DECAY_DATE":null,"SITE":"AFETR","TIME_SYSTEM":"UTC","MEAN_ANOMALY":"269.1015","REF_FRAME":"TEME","NORAD_CAT_ID":"47978","SEMIMAJOR_AXIS":"6925.374","PERIAPSIS":"546.243","TLE_LINE1":"1 47978U 21024B   23031.37169381 -.00002021  00000-0 -11682-3 0  9999","TLE_LINE2":"2 47978  53.0545  24.2821 0001438  91.0139 269.1015 15.06391705103743","REV_AT_EPOCH":"10374","CLASSIFICATION_TYPE":"U","ELEMENT_SET_NO":"999","RCS_SIZE":"LARGE","FILE":"3766475","EPOCH":"2023-01-31T08:55:14.345184","MEAN_ELEMENT_THEORY":"SGP4","GP_ID":"224094028","MEAN_MOTION":"15.06391705","MEAN_MOTION_DDOT":"0.0000000000000","MEAN_MOTION_DOT":"-0.00002021","PERIOD":"95.593","EPHEMERIS_TYPE":"0","BSTAR":"-0.00011682000000","OBJECT_NAME":"STARLINK-1647"}];
